[{"OBJECT_NAME":"STARLINK-5417","OBJECT_ID":"2022-175AZ","EPOCH":"2026-03-09T07:01:00.764544","MEAN_MOTION":15.08840915,"ECCENTRICITY":0.00014053,"INCLINATION":53.2185,"RA_OF_ASC_NODE":30.6165,"ARG_OF_PERICENTER":86.7369,"MEAN_ANOMALY":273.3784,"EPHEMERIS_TYPE":0,"CLASSIFICATION_TYPE":"U","NORAD_CAT_ID":54805,"ELEMENT_SET_NO":999,"REV_AT_EPOCH":18007,"BSTAR":-8.6963195e-5,"MEAN_MOTION_DOT":-1.672e-5,"MEAN_MOTION_DDOT":0},{"OBJECT_NAME":"FENGYUN 1C DEB","OBJECT_ID":"1999-025DVA","EPOCH":"2026-03-08T04:27:49.439232","MEAN_MOTION":15.15496966,"ECCENTRICITY":0.00338373,"INCLINATION":98.8203,"RA_OF_ASC_NODE":206.4896,"ARG_OF_PERICENTER":4.2711,"MEAN_ANOMALY":355.88,"EPHEMERIS_TYPE":0,"CLASSIFICATION_TYPE":"U","NORAD_CAT_ID":36225,"ELEMENT_SET_NO":999,"REV_AT_EPOCH":68062,"BSTAR":0.0036229129,"MEAN_MOTION_DOT":0.00070122,"MEAN_MOTION_DDOT":0}]
